{
    "links": {
        "self": "http://www.neowsapp.com/rest/v1/neo/3699952?api_key=iIulBulltgU6a56xZRHN4H3l9WmuAYTsLGpBGhQ2"
    },
    "id": "3699952",
    "neo_reference_id": "3699952",
    "name": "(2014 WP371)",
    "designation": "2014 WP371",
    "nasa_jpl_url": "http://ssd.jpl.nasa.gov/sbdb.cgi?sstr=3699952",
    "absolute_magnitude_h": 21.7,
    "estimated_diameter": {
        "kilometers": {
            "estimated_diameter_min": 0.1214940408,
            "estimated_diameter_max": 0.2716689341
        },
        "meters": {
            "estimated_diameter_min": 121.4940407996,
            "estimated_diameter_max": 271.6689340891
        },
        "miles": {
            "estimated_diameter_min": 0.0754928736,
            "estimated_diameter_max": 0.1688071972
        },
        "feet": {
            "estimated_diameter_min": 398.6025088171,
            "estimated_diameter_max": 891.3023057169
        }
    },
    "is_potentially_hazardous_asteroid": false,
    "close_approach_data": [
        {
            "close_approach_date": "2003-12-14",
            "close_approach_date_full": "2003-Dec-14 01:51",
            "epoch_date_close_approach": 1071366660000,
            "relative_velocity": {
                "kilometers_per_second": "14.0867354408",
                "kilometers_per_hour": "50712.2475868966",
                "miles_per_hour": "31510.6185075358"
            },
            "miss_distance": {
                "astronomical": "0.4000710517",
                "lunar": "155.6276391113",
                "kilometers": "59849777.182979879",
                "miles": "37188927.0680411702"
            },
            "orbiting_body": "Earth"
        },
        {
            "close_approach_date": "2014-12-09",
            "close_approach_date_full": "2014-Dec-09 06:21",
            "epoch_date_close_approach": 1418106060000,
            "relative_velocity": {
                "kilometers_per_second": "13.3815983549",
                "kilometers_per_hour": "48173.7540777196",
                "miles_per_hour": "29933.2973601252"
            },
            "miss_distance": {
                "astronomical": "0.3547963822",
                "lunar": "138.0157926758",
                "kilometers": "53076783.060825914",
                "miles": "32980383.6732850532"
            },
            "orbiting_body": "Earth"
        }
    ],
    "orbital_data": {
        "orbit_id": "7",
        "orbit_determination_date": "2017-04-06 08:36:59",
        "first_observation_date": "2014-11-26",
        "last_observation_date": "2014-12-25",
        "data_arc_in_days": 29,
        "observations_used": 20,
        "orbit_uncertainty": "7",
        "minimum_orbit_intersection": ".354991",
        "jupiter_tisserand_invariant": "4.062",
        "epoch_osculation": "2459000.5",
        "eccentricity": ".2668195858360163",
        "semi_major_axis": "1.695012190226547",
        "inclination": "25.6088247975778",
        "ascending_node_longitude": "242.1161769173647",
        "orbital_period": "806.0419884989298",
        "perihelion_distance": "1.242749739643301",
        "perihelion_argument": "237.6621402643234",
        "aphelion_distance": "2.147274640809794",
        "perihelion_time": "2458664.714217043828",
        "mean_anomaly": "149.9709488947827",
        "mean_motion": ".4466268570827412",
        "equinox": "J2000",
        "orbit_class": {
            "orbit_class_type": "AMO",
            "orbit_class_description": "Near-Earth asteroid orbits similar to that of 1221 Amor",
            "orbit_class_range": "1.017 AU < q (perihelion) < 1.3 AU"
        }
    },
    "is_sentry_object": false
}